[Satellite]
VERSION=1.1
NAME=DMSP 5D-3 F16 (USA 172)
NICKNAME=DMSP 5D-3 F16 (USA 172)
TLE1=1 28054U 03048A   20157.90844008 -.00000086  00000-0 -21977-4 0  9998
TLE2=2 28054  98.9113 137.0076 0006387 255.4514 158.2305 14.13656976858155
STATUS=0
